STARLINK-33577          
1 62762U 25015E   25273.39634412  .00035155  00000+0  11943-2 0  9995
2 62762  53.1619 346.7085 0001545  59.0170 301.0982 15.30178141 39949
STARLINK-33597          
1 62763U 25015F   25273.19102685  .00075321  00000+0  25303-2 0  9990
2 62763  53.1596 348.2716 0001512  88.9242 271.1932 15.30189763 39907
STARLINK-33579          
1 62764U 25015G   25273.39106605  .00064209  00000+0  21598-2 0  9994
2 62764  53.1601 346.6784 0001171  99.4590 260.6543 15.30222930 39945
STARLINK-33592          
1 62765U 25015H   25273.62922547  .00045664  00000+0  15436-2 0  9990
2 62765  53.1587 346.0294 0001897 105.3174 254.8036 15.30216303 39847
STARLINK-33595          
1 62766U 25015J   25273.93048157  .00053386  00000+0  18022-2 0  9995
2 62766  53.1620 344.3579 0000984  63.9372 296.1730 15.30191674 40023
STARLINK-33572          
1 62767U 25015K   25274.20756500  .00072489  00000+0  24356-2 0  9997
2 62767  53.1595 343.2419 0001619  83.6006 276.5179 15.30202647 40005
STARLINK-33601          
1 62768U 25015L   25273.61339157  .00037607  00000+0  12762-2 0  9998
2 62768  53.1602 345.9288 0001423  99.0008 261.1154 15.30180085 39972
STARLINK-33569          
1 62769U 25015M   25273.92309393  .00078594  00000+0  26400-2 0  9996
2 62769  53.1619 344.3113 0001433  74.9762 285.1397 15.30172894 40023
STARLINK-33594          
1 62770U 25015N   25273.39318086  .00033190  00000+0  11290-2 0  9992
2 62770  53.1601 346.6909 0003353   3.0780 357.0240 15.30160597 39942
STARLINK-33598          
1 62771U 25015P   25273.92519411  .00064480  00000+0  21709-2 0  9999
2 62771  53.1616 344.3200 0001172 123.0245 237.0868 15.30191666 40029
STARLINK-33600          
1 62772U 25015Q   25272.92025951  .00047956  00000+0  16195-2 0  9992
2 62772  53.1589 349.4243 0001563  85.0539 275.0640 15.30226489 39861
STARLINK-33567          
1 62773U 25015R   25273.61022528  .00043294  00000+0  14665-2 0  9998
2 62773  53.1611 345.9060 0001542 112.8718 247.2445 15.30174238 39971
STARLINK-33574          
1 62774U 25015S   25273.92941309  .00035161  00000+0  11927-2 0  9992
2 62774  53.1617 344.3502 0001400  96.1781 263.9379 15.30226470 39741
STARLINK-33576          
1 62775U 25015T   25273.62816770  .00050839  00000+0  17182-2 0  9991
2 62775  53.1590 346.0254 0001423 107.4130 252.7027 15.30174472 39913
STARLINK-33570          
1 62776U 25015U   25273.92835667  .00049535  00000+0  16719-2 0  9997
2 62776  53.1617 344.3393 0002183  92.0315 268.0936 15.30229538 39965
STARLINK-33591          
1 62777U 25015V   25273.23311084  .00067766  00000+0  22736-2 0  9996
2 62777  53.1584 347.8238 0001427  69.5385 290.5769 15.30281102 39915
