[{"OBJECT_NAME":"STARLINK-33577","OBJECT_ID":"2025-015E","EPOCH":"2025-09-30T09:30:44.131968","MEAN_MOTION":15.30178141,"ECCENTRICITY":0.00015452,"INCLINATION":53.1619,"RA_OF_ASC_NODE":346.7085,"ARG_OF_PERICENTER":59.017,"MEAN_ANOMALY":301.0982,"EPHEMERIS_TYPE":0,"CLASSIFICATION_TYPE":"U","NORAD_CAT_ID":62762,"ELEMENT_SET_NO":999,"REV_AT_EPOCH":3994,"BSTAR":0.0011942688,"MEAN_MOTION_DOT":0.00035155,"MEAN_MOTION_DDOT":0},{"OBJECT_NAME":"STARLINK-33597","OBJECT_ID":"2025-015F","EPOCH":"2025-09-30T04:35:04.719840","MEAN_MOTION":15.30189763,"ECCENTRICITY":0.00015126,"INCLINATION":53.1596,"RA_OF_ASC_NODE":348.2716,"ARG_OF_PERICENTER":88.9242,"MEAN_ANOMALY":271.1932,"EPHEMERIS_TYPE":0,"CLASSIFICATION_TYPE":"U","NORAD_CAT_ID":62763,"ELEMENT_SET_NO":999,"REV_AT_EPOCH":3990,"BSTAR":0.0025303452,"MEAN_MOTION_DOT":0.00075321,"MEAN_MOTION_DDOT":0},{"OBJECT_NAME":"STARLINK-33579","OBJECT_ID":"2025-015G","EPOCH":"2025-09-30T09:23:08.106720","MEAN_MOTION":15.3022293,"ECCENTRICITY":0.00011712,"INCLINATION":53.1601,"RA_OF_ASC_NODE":346.6784,"ARG_OF_PERICENTER":99.459,"MEAN_ANOMALY":260.6543,"EPHEMERIS_TYPE":0,"CLASSIFICATION_TYPE":"U","NORAD_CAT_ID":62764,"ELEMENT_SET_NO":999,"REV_AT_EPOCH":3994,"BSTAR":0.0021598345,"MEAN_MOTION_DOT":0.00064209,"MEAN_MOTION_DDOT":0},{"OBJECT_NAME":"STARLINK-33592","OBJECT_ID":"2025-015H","EPOCH":"2025-09-30T15:06:05.080608","MEAN_MOTION":15.30216303,"ECCENTRICITY":0.0001897,"INCLINATION":53.1587,"RA_OF_ASC_NODE":346.0294,"ARG_OF_PERICENTER":105.3174,"MEAN_ANOMALY":254.8036,"EPHEMERIS_TYPE":0,"CLASSIFICATION_TYPE":"U","NORAD_CAT_ID":62765,"ELEMENT_SET_NO":999,"REV_AT_EPOCH":3984,"BSTAR":0.0015436,"MEAN_MOTION_DOT":0.00045664,"MEAN_MOTION_DDOT":0},{"OBJECT_NAME":"STARLINK-33595","OBJECT_ID":"2025-015J","EPOCH":"2025-09-30T22:19:53.607648","MEAN_MOTION":15.30191674,"ECCENTRICITY":9.843e-5,"INCLINATION":53.162,"RA_OF_ASC_NODE":344.3579,"ARG_OF_PERICENTER":63.9372,"MEAN_ANOMALY":296.173,"EPHEMERIS_TYPE":0,"CLASSIFICATION_TYPE":"U","NORAD_CAT_ID":62766,"ELEMENT_SET_NO":999,"REV_AT_EPOCH":4002,"BSTAR":0.001802158,"MEAN_MOTION_DOT":0.00053386,"MEAN_MOTION_DDOT":0},{"OBJECT_NAME":"STARLINK-33572","OBJECT_ID":"2025-015K","EPOCH":"2025-10-01T04:58:53.616000","MEAN_MOTION":15.30202647,"ECCENTRICITY":0.00016198,"INCLINATION":53.1595,"RA_OF_ASC_NODE":343.2419,"ARG_OF_PERICENTER":83.6006,"MEAN_ANOMALY":276.5179,"EPHEMERIS_TYPE":0,"CLASSIFICATION_TYPE":"U","NORAD_CAT_ID":62767,"ELEMENT_SET_NO":999,"REV_AT_EPOCH":4000,"BSTAR":0.0024356162,"MEAN_MOTION_DOT":0.00072489,"MEAN_MOTION_DDOT":0},{"OBJECT_NAME":"STARLINK-33601","OBJECT_ID":"2025-015L","EPOCH":"2025-09-30T14:43:17.031648","MEAN_MOTION":15.30180085,"ECCENTRICITY":0.0001423,"INCLINATION":53.1602,"RA_OF_ASC_NODE":345.9288,"ARG_OF_PERICENTER":99.0008,"MEAN_ANOMALY":261.1154,"EPHEMERIS_TYPE":0,"CLASSIFICATION_TYPE":"U","NORAD_CAT_ID":62768,"ELEMENT_SET_NO":999,"REV_AT_EPOCH":3997,"BSTAR":0.0012762,"MEAN_MOTION_DOT":0.00037607,"MEAN_MOTION_DDOT":0},{"OBJECT_NAME":"STARLINK-33569","OBJECT_ID":"2025-015M","EPOCH":"2025-09-30T22:09:15.315552","MEAN_MOTION":15.30172894,"ECCENTRICITY":0.00014336,"INCLINATION":53.1619,"RA_OF_ASC_NODE":344.3113,"ARG_OF_PERICENTER":74.9762,"MEAN_ANOMALY":285.1397,"EPHEMERIS_TYPE":0,"CLASSIFICATION_TYPE":"U","NORAD_CAT_ID":62769,"ELEMENT_SET_NO":999,"REV_AT_EPOCH":4002,"BSTAR":0.002640011,"MEAN_MOTION_DOT":0.00078594,"MEAN_MOTION_DDOT":0},{"OBJECT_NAME":"STARLINK-33594","OBJECT_ID":"2025-015N","EPOCH":"2025-09-30T09:26:10.826304","MEAN_MOTION":15.30160597,"ECCENTRICITY":0.00033531,"INCLINATION":53.1601,"RA_OF_ASC_NODE":346.6909,"ARG_OF_PERICENTER":3.078,"MEAN_ANOMALY":357.024,"EPHEMERIS_TYPE":0,"CLASSIFICATION_TYPE":"U","NORAD_CAT_ID":62770,"ELEMENT_SET_NO":999,"REV_AT_EPOCH":3994,"BSTAR":0.0011289857,"MEAN_MOTION_DOT":0.0003319,"MEAN_MOTION_DDOT":0},{"OBJECT_NAME":"STARLINK-33598","OBJECT_ID":"2025-015P","EPOCH":"2025-09-30T22:12:16.771104","MEAN_MOTION":15.30191666,"ECCENTRICITY":0.00011727,"INCLINATION":53.1616,"RA_OF_ASC_NODE":344.32,"ARG_OF_PERICENTER":123.0245,"MEAN_ANOMALY":237.0868,"EPHEMERIS_TYPE":0,"CLASSIFICATION_TYPE":"U","NORAD_CAT_ID":62771,"ELEMENT_SET_NO":999,"REV_AT_EPOCH":4002,"BSTAR":0.0021709359,"MEAN_MOTION_DOT":0.0006448,"MEAN_MOTION_DDOT":0},{"OBJECT_NAME":"STARLINK-33600","OBJECT_ID":"2025-015Q","EPOCH":"2025-09-29T22:05:10.421664","MEAN_MOTION":15.30226489,"ECCENTRICITY":0.0001563,"INCLINATION":53.1589,"RA_OF_ASC_NODE":349.4243,"ARG_OF_PERICENTER":85.0539,"MEAN_ANOMALY":275.064,"EPHEMERIS_TYPE":0,"CLASSIFICATION_TYPE":"U","NORAD_CAT_ID":62772,"ELEMENT_SET_NO":999,"REV_AT_EPOCH":3986,"BSTAR":0.0016195,"MEAN_MOTION_DOT":0.00047956,"MEAN_MOTION_DDOT":0},{"OBJECT_NAME":"STARLINK-33567","OBJECT_ID":"2025-015R","EPOCH":"2025-09-30T14:38:43.464192","MEAN_MOTION":15.30174238,"ECCENTRICITY":0.0001542,"INCLINATION":53.1611,"RA_OF_ASC_NODE":345.906,"ARG_OF_PERICENTER":112.8718,"MEAN_ANOMALY":247.2445,"EPHEMERIS_TYPE":0,"CLASSIFICATION_TYPE":"U","NORAD_CAT_ID":62773,"ELEMENT_SET_NO":999,"REV_AT_EPOCH":3997,"BSTAR":0.0014665,"MEAN_MOTION_DOT":0.00043294,"MEAN_MOTION_DDOT":0},{"OBJECT_NAME":"STARLINK-33574","OBJECT_ID":"2025-015S","EPOCH":"2025-09-30T22:18:21.290976","MEAN_MOTION":15.3022647,"ECCENTRICITY":0.00014002,"INCLINATION":53.1617,"RA_OF_ASC_NODE":344.3502,"ARG_OF_PERICENTER":96.1781,"MEAN_ANOMALY":263.9379,"EPHEMERIS_TYPE":0,"CLASSIFICATION_TYPE":"U","NORAD_CAT_ID":62774,"ELEMENT_SET_NO":999,"REV_AT_EPOCH":3974,"BSTAR":0.0011926768,"MEAN_MOTION_DOT":0.00035161,"MEAN_MOTION_DDOT":0},{"OBJECT_NAME":"STARLINK-33576","OBJECT_ID":"2025-015T","EPOCH":"2025-09-30T15:04:33.689280","MEAN_MOTION":15.30174472,"ECCENTRICITY":0.0001423,"INCLINATION":53.159,"RA_OF_ASC_NODE":346.0254,"ARG_OF_PERICENTER":107.413,"MEAN_ANOMALY":252.7027,"EPHEMERIS_TYPE":0,"CLASSIFICATION_TYPE":"U","NORAD_CAT_ID":62775,"ELEMENT_SET_NO":999,"REV_AT_EPOCH":3991,"BSTAR":0.0017182,"MEAN_MOTION_DOT":0.00050839,"MEAN_MOTION_DDOT":0},{"OBJECT_NAME":"STARLINK-33570","OBJECT_ID":"2025-015U","EPOCH":"2025-09-30T22:16:50.016288","MEAN_MOTION":15.30229538,"ECCENTRICITY":0.00021832,"INCLINATION":53.1617,"RA_OF_ASC_NODE":344.3393,"ARG_OF_PERICENTER":92.0315,"MEAN_ANOMALY":268.0936,"EPHEMERIS_TYPE":0,"CLASSIFICATION_TYPE":"U","NORAD_CAT_ID":62776,"ELEMENT_SET_NO":999,"REV_AT_EPOCH":3996,"BSTAR":0.0016718988,"MEAN_MOTION_DOT":0.00049535,"MEAN_MOTION_DDOT":0},{"OBJECT_NAME":"STARLINK-33591","OBJECT_ID":"2025-015V","EPOCH":"2025-09-30T05:35:40.776576","MEAN_MOTION":15.30281102,"ECCENTRICITY":0.0001427,"INCLINATION":53.1584,"RA_OF_ASC_NODE":347.8238,"ARG_OF_PERICENTER":69.5385,"MEAN_ANOMALY":290.5769,"EPHEMERIS_TYPE":0,"CLASSIFICATION_TYPE":"U","NORAD_CAT_ID":62777,"ELEMENT_SET_NO":999,"REV_AT_EPOCH":3991,"BSTAR":0.0022736,"MEAN_MOTION_DOT":0.00067766,"MEAN_MOTION_DDOT":0}]
